start=new Date('2022-04-26T00:00:00.000Z').valueOf();
sats=[{"NORAD_CAT_ID":"44719","OBJECT_ID":"2019-074G","SEMIMAJOR_AXIS":"6925.381","REV_AT_EPOCH":"13674","PERIOD":"95.593","REF_FRAME":"TEME","INCLINATION":"53.0563","ARG_OF_PERICENTER":"51.1231","LAUNCH_DATE":"2019-11-11","BSTAR":"-0.00000384610000","EPOCH":"2022-04-25T15:19:32.356416","ECCENTRICITY":"0.00017900","ELEMENT_SET_NO":"999","COUNTRY_CODE":"US","MEAN_ELEMENT_THEORY":"SGP4","MEAN_MOTION_DDOT":"0.0000000000000","OBJECT_TYPE":"PAYLOAD","EPHEMERIS_TYPE":"0","APOAPSIS":"548.486","MEAN_MOTION":"15.06389379","FILE":"3416090","SITE":"AFETR","CLASSIFICATION_TYPE":"U","TLE_LINE1":"1 44719U 19074G   22115.63856894 -.00000339  00000-0 -38461-5 0  9990","OBJECT_NAME":"STARLINK-1013","MEAN_ANOMALY":"308.9917","CENTER_NAME":"EARTH","MEAN_MOTION_DOT":"-0.00000339","TIME_SYSTEM":"UTC","DECAY_DATE":null,"RA_OF_ASC_NODE":"54.5494","PERIAPSIS":"546.006","GP_ID":"202024542","TLE_LINE2":"2 44719  53.0563  54.5494 0001790  51.1231 308.9917 15.06389379136749","RCS_SIZE":"LARGE"},{"TLE_LINE1":"1 44720U 19074H   22115.52430286  .00000605  00000-0  59548-4 0  9995","MEAN_ANOMALY":"308.5846","OBJECT_NAME":"STARLINK-1014","MEAN_MOTION_DOT":"0.00000605","TIME_SYSTEM":"UTC","CENTER_NAME":"EARTH","DECAY_DATE":null,"PERIAPSIS":"546.160","RA_OF_ASC_NODE":"55.0449","GP_ID":"201991322","TLE_LINE2":"2 44720  53.0559  55.0449 0001577  51.5284 308.5846 15.06387427135600","RCS_SIZE":"LARGE","OBJECT_TYPE":"PAYLOAD","EPHEMERIS_TYPE":"0","APOAPSIS":"548.344","MEAN_MOTION":"15.06387427","CLASSIFICATION_TYPE":"U","FILE":"3415659","SITE":"AFETR","LAUNCH_DATE":"2019-11-11","BSTAR":"0.00005954800000","EPOCH":"2022-04-25T12:34:59.767104","ECCENTRICITY":"0.00015770","ELEMENT_SET_NO":"999","COUNTRY_CODE":"US","MEAN_ELEMENT_THEORY":"SGP4","MEAN_MOTION_DDOT":"0.0000000000000","NORAD_CAT_ID":"44720","OBJECT_ID":"2019-074H","SEMIMAJOR_AXIS":"6925.387","REV_AT_EPOCH":"13560","PERIOD":"95.593","ARG_OF_PERICENTER":"51.5284","INCLINATION":"53.0559","REF_FRAME":"TEME"},{"CENTER_NAME":"EARTH","MEAN_MOTION_DOT":"0.00001927","TIME_SYSTEM":"UTC","DECAY_DATE":null,"TLE_LINE1":"1 44721U 19074J   22115.24785528  .00001927  00000-0  14825-3 0  9993","OBJECT_NAME":"STARLINK-1015","MEAN_ANOMALY":"302.5148","RCS_SIZE":"LARGE","RA_OF_ASC_NODE":"56.2969","PERIAPSIS":"546.135","TLE_LINE2":"2 44721  53.0573  56.2969 0001582  57.5994 302.5148 15.06394314135553","GP_ID":"201992064","OBJECT_TYPE":"PAYLOAD","EPHEMERIS_TYPE":"0","MEAN_MOTION":"15.06394314","SITE":"AFETR","FILE":"3415659","CLASSIFICATION_TYPE":"U","APOAPSIS":"548.327","ECCENTRICITY":"0.00015820","ELEMENT_SET_NO":"999","LAUNCH_DATE":"2019-11-11","BSTAR":"0.00014825000000","EPOCH":"2022-04-25T05:56:54.696192","MEAN_MOTION_DDOT":"0.0000000000000","COUNTRY_CODE":"US","MEAN_ELEMENT_THEORY":"SGP4","SEMIMAJOR_AXIS":"6925.366","REV_AT_EPOCH":"13555","NORAD_CAT_ID":"44721","OBJECT_ID":"2019-074J","REF_FRAME":"TEME","ARG_OF_PERICENTER":"57.5994","INCLINATION":"53.0573","PERIOD":"95.593"},{"RCS_SIZE":"LARGE","PERIAPSIS":"545.990","RA_OF_ASC_NODE":"56.8749","GP_ID":"201990322","TLE_LINE2":"2 44722  53.0563  56.8749 0002380  65.8190 294.3048 15.06261293135547","TIME_SYSTEM":"UTC","MEAN_MOTION_DOT":"0.00028425","CENTER_NAME":"EARTH","DECAY_DATE":null,"TLE_LINE1":"1 44722U 19074K   22115.11886769  .00028425  00000-0  19266-2 0  9994","OBJECT_NAME":"STARLINK-1016","MEAN_ANOMALY":"294.3048","MEAN_MOTION":"15.06261293","CLASSIFICATION_TYPE":"U","SITE":"AFETR","FILE":"3415659","APOAPSIS":"549.287","OBJECT_TYPE":"PAYLOAD","EPHEMERIS_TYPE":"0","MEAN_MOTION_DDOT":"0.0000000000000","COUNTRY_CODE":"US","MEAN_ELEMENT_THEORY":"SGP4","ECCENTRICITY":"0.00023800","ELEMENT_SET_NO":"999","LAUNCH_DATE":"2019-11-11","BSTAR":"0.00192660000000","EPOCH":"2022-04-25T02:51:10.168416","ARG_OF_PERICENTER":"65.8190","INCLINATION":"53.0563","REF_FRAME":"TEME","PERIOD":"95.601","SEMIMAJOR_AXIS":"6925.774","REV_AT_EPOCH":"13554","NORAD_CAT_ID":"44722","OBJECT_ID":"2019-074K"},{"REF_FRAME":"TEME","ARG_OF_PERICENTER":"69.1127","INCLINATION":"53.0548","PERIOD":"95.593","SEMIMAJOR_AXIS":"6925.376","REV_AT_EPOCH":"13560","NORAD_CAT_ID":"44723","OBJECT_ID":"2019-074L","MEAN_MOTION_DDOT":"0.0000000000000","COUNTRY_CODE":"US","MEAN_ELEMENT_THEORY":"SGP4","ECCENTRICITY":"0.00015000","ELEMENT_SET_NO":"999","BSTAR":"0.00014637000000","LAUNCH_DATE":"2019-11-11","EPOCH":"2022-04-25T12:45:36.309600","MEAN_MOTION":"15.06391129","FILE":"3415659","SITE":"AFETR","CLASSIFICATION_TYPE":"U","APOAPSIS":"548.280","OBJECT_TYPE":"PAYLOAD","EPHEMERIS_TYPE":"0","RCS_SIZE":"LARGE","RA_OF_ASC_NODE":"55.0292","PERIAPSIS":"546.202","TLE_LINE2":"2 44723  53.0548  55.0292 0001500  69.1127 291.0022 15.06391129135600","GP_ID":"201990572","CENTER_NAME":"EARTH","TIME_SYSTEM":"UTC","MEAN_MOTION_DOT":"0.00001899","DECAY_DATE":null,"TLE_LINE1":"1 44723U 19074L   22115.53167025  .00001899  00000-0  14637-3 0  9992","OBJECT_NAME":"STARLINK-1017","MEAN_ANOMALY":"291.0022"},{"OBJECT_TYPE":"PAYLOAD","EPHEMERIS_TYPE":"0","MEAN_MOTION":"15.06395386","FILE":"3416090","SITE":"AFETR","CLASSIFICATION_TYPE":"U","APOAPSIS":"548.397","CENTER_NAME":"EARTH","MEAN_MOTION_DOT":"0.00000953","TIME_SYSTEM":"UTC","DECAY_DATE":null,"TLE_LINE1":"1 44724U 19074M   22115.56116356  .00000953  00000-0  82872-4 0  9994","OBJECT_NAME":"STARLINK-1019","MEAN_ANOMALY":"305.4017","RCS_SIZE":"LARGE","RA_OF_ASC_NODE":"54.8944","PERIAPSIS":"546.059","TLE_LINE2":"2 44724  53.0570  54.8944 0001688  54.7129 305.4017 15.06395386135609","GP_ID":"202024292","SEMIMAJOR_AXIS":"6925.363","REV_AT_EPOCH":"13560","NORAD_CAT_ID":"44724","OBJECT_ID":"2019-074M","REF_FRAME":"TEME","ARG_OF_PERICENTER":"54.7129","INCLINATION":"53.0570","PERIOD":"95.592","ECCENTRICITY":"0.00016880","ELEMENT_SET_NO":"999","LAUNCH_DATE":"2019-11-11","BSTAR":"0.00008287200000","EPOCH":"2022-04-25T13:28:04.531584","MEAN_MOTION_DDOT":"0.0000000000000","COUNTRY_CODE":"US","MEAN_ELEMENT_THEORY":"SGP4"},{"EPHEMERIS_TYPE":"0","OBJECT_TYPE":"PAYLOAD","CLASSIFICATION_TYPE":"U","FILE":"3416090","SITE":"AFETR","MEAN_MOTION":"15.06397802","APOAPSIS":"548.411","DECAY_DATE":null,"TIME_SYSTEM":"UTC","MEAN_MOTION_DOT":"0.00000815","CENTER_NAME":"EARTH","OBJECT_NAME":"STARLINK-1020","MEAN_ANOMALY":"296.7763","TLE_LINE1":"1 44725U 19074N   22115.89842751  .00000815  00000-0  73642-4 0  9998","RCS_SIZE":"LARGE","GP_ID":"202025039","TLE_LINE2":"2 44725  53.0545  73.3615 0001720  63.3402 296.7763 15.06397802135379","PERIAPSIS":"546.029","RA_OF_ASC_NODE":"73.3615","REV_AT_EPOCH":"13537","SEMIMAJOR_AXIS":"6925.355","OBJECT_ID":"2019-074N","NORAD_CAT_ID":"44725","INCLINATION":"53.0545","ARG_OF_PERICENTER":"63.3402","REF_FRAME":"TEME","PERIOD":"95.592","ELEMENT_SET_NO":"999","ECCENTRICITY":"0.00017200","EPOCH":"2022-04-25T21:33:44.136864","LAUNCH_DATE":"2019-11-11","BSTAR":"0.00007364200000","MEAN_MOTION_DDOT":"0.0000000000000","MEAN_ELEMENT_THEORY":"SGP4","COUNTRY_CODE":"US"},{"APOAPSIS":"548.475","MEAN_MOTION":"15.06388202","CLASSIFICATION_TYPE":"U","SITE":"AFETR","FILE":"3416090","OBJECT_TYPE":"PAYLOAD","EPHEMERIS_TYPE":"0","PERIAPSIS":"546.025","RA_OF_ASC_NODE":"53.7152","GP_ID":"202025289","TLE_LINE2":"2 44726  53.0554  53.7152 0001769  65.1742 294.9430 15.06388202135643","RCS_SIZE":"LARGE","TLE_LINE1":"1 44726U 19074P   22115.82286691  .00000504  00000-0  52745-4 0  9993","OBJECT_NAME":"STARLINK-1021","MEAN_ANOMALY":"294.9430","MEAN_MOTION_DOT":"0.00000504","TIME_SYSTEM":"UTC","CENTER_NAME":"EARTH","DECAY_DATE":null,"PERIOD":"95.593","INCLINATION":"53.0554","ARG_OF_PERICENTER":"65.1742","REF_FRAME":"TEME","NORAD_CAT_ID":"44726","OBJECT_ID":"2019-074P","SEMIMAJOR_AXIS":"6925.385","REV_AT_EPOCH":"13564","COUNTRY_CODE":"US","MEAN_ELEMENT_THEORY":"SGP4","MEAN_MOTION_DDOT":"0.0000000000000","LAUNCH_DATE":"2019-11-11","BSTAR":"0.00005274500000","EPOCH":"2022-04-25T19:44:55.701024","ECCENTRICITY":"0.00017690","ELEMENT_SET_NO":"999"},{"RCS_SIZE":"LARGE","GP_ID":"202024543","TLE_LINE2":"2 44727  53.0546  94.4463 0001936  52.7417 307.3748 15.06391543135079","RA_OF_ASC_NODE":"94.4463","PERIAPSIS":"545.899","DECAY_DATE":null,"CENTER_NAME":"EARTH","MEAN_MOTION_DOT":"-0.00000877","TIME_SYSTEM":"UTC","MEAN_ANOMALY":"307.3748","OBJECT_NAME":"STARLINK-1022","TLE_LINE1":"1 44727U 19074Q   22115.65974628 -.00000877  00000-0 -40004-4 0  9999","FILE":"3416090","SITE":"AFETR","CLASSIFICATION_TYPE":"U","MEAN_MOTION":"15.06391543","APOAPSIS":"548.580","EPHEMERIS_TYPE":"0","OBJECT_TYPE":"PAYLOAD","MEAN_MOTION_DDOT":"0.0000000000000","MEAN_ELEMENT_THEORY":"SGP4","COUNTRY_CODE":"US","ELEMENT_SET_NO":"999","ECCENTRICITY":"0.00019360","EPOCH":"2022-04-25T15:50:02.078592","BSTAR":"-0.00004000400000","LAUNCH_DATE":"2019-11-11","REF_FRAME":"TEME","INCLINATION":"53.0546","ARG_OF_PERICENTER":"52.7417","PERIOD":"95.593","REV_AT_EPOCH":"13507","SEMIMAJOR_AXIS":"6925.374","OBJECT_ID":"2019-074Q","NORAD_CAT_ID":"44727"},{"REV_AT_EPOCH":"13540","SEMIMAJOR_AXIS":"6909.478","OBJECT_ID":"2019-074S","NORAD_CAT_ID":"44729","INCLINATION":"53.0019","ARG_OF_PERICENTER":"85.5850","REF_FRAME":"TEME","PERIOD":"95.264","ELEMENT_SET_NO":"999","ECCENTRICITY":"0.00020930","EPOCH":"2022-04-25T13:46:39.767232","LAUNCH_DATE":"2019-11-11","BSTAR":"0.00107480000000","MEAN_MOTION_DDOT":"0.0000000000000","MEAN_ELEMENT_THEORY":"SGP4","COUNTRY_CODE":"US","EPHEMERIS_TYPE":"0","OBJECT_TYPE":"PAYLOAD","CLASSIFICATION_TYPE":"U","FILE":"3416090","SITE":"AFETR","MEAN_MOTION":"15.11593071","APOAPSIS":"532.789","DECAY_DATE":null,"MEAN_MOTION_DOT":"0.00018208","TIME_SYSTEM":"UTC","CENTER_NAME":"EARTH","MEAN_ANOMALY":"274.5380","OBJECT_NAME":"STARLINK-1024","TLE_LINE1":"1 44729U 19074S   22115.57407138  .00018208  00000-0  10748-2 0  9994","RCS_SIZE":"LARGE","GP_ID":"202024793","TLE_LINE2":"2 44729  53.0019  67.1279 0002093  85.5850 274.5380 15.11593071135408","PERIAPSIS":"529.897","RA_OF_ASC_NODE":"67.1279"}];
